{
  "links" : {
    "next" : "https://api.nasa.gov/neo/rest/v1/feed?start_date=2016-04-16&end_date=2016-04-16&detailed=true&api_key=t0TVs3DtDT2H8Oy2Zy8m2eVrNsAVKAexjcZXUckd",
    "prev" : "https://api.nasa.gov/neo/rest/v1/feed?start_date=2016-04-14&end_date=2016-04-14&detailed=true&api_key=t0TVs3DtDT2H8Oy2Zy8m2eVrNsAVKAexjcZXUckd",
    "self" : "https://api.nasa.gov/neo/rest/v1/feed?start_date=2016-04-15&end_date=2016-04-15&detailed=true&api_key=t0TVs3DtDT2H8Oy2Zy8m2eVrNsAVKAexjcZXUckd"
  },
  "element_count" : 10,
  "near_earth_objects" : {
    "2016-04-15" : [ {
      "links" : {
        "self" : "https://api.nasa.gov/neo/rest/v1/neo/3748478?api_key=t0TVs3DtDT2H8Oy2Zy8m2eVrNsAVKAexjcZXUckd"
      },
      "neo_reference_id" : "3748478",
      "name" : "(2016 FL13)",
      "nasa_jpl_url" : "http://ssd.jpl.nasa.gov/sbdb.cgi?sstr=3748478",
      "absolute_magnitude_h" : 25.4,
      "estimated_diameter" : {
        "kilometers" : {
          "estimated_diameter_min" : 0.022108281,
          "estimated_diameter_max" : 0.0494356193
        },
        "meters" : {
          "estimated_diameter_min" : 22.1082810359,
          "estimated_diameter_max" : 49.435619262
        },
        "miles" : {
          "estimated_diameter_min" : 0.0137374447,
          "estimated_diameter_max" : 0.0307178602
        },
        "feet" : {
          "estimated_diameter_min" : 72.5337327539,
          "estimated_diameter_max" : 162.1903570994
        }
      },
      "is_potentially_hazardous_asteroid" : false,
      "close_approach_data" : [ {
        "close_approach_date" : "2016-04-15",
        "epoch_date_close_approach" : 1460703600000,
        "relative_velocity" : {
          "kilometers_per_second" : "11.9941472616",
          "kilometers_per_hour" : "43178.9301419303",
          "miles_per_hour" : "26829.7080095788"
        },
        "miss_distance" : {
          "astronomical" : "0.0250356654",
          "lunar" : "9.7388744354",
          "kilometers" : "3745282.5",
          "miles" : "2327210.5"
        },
        "orbiting_body" : "Earth"
      } ],
      "orbital_data" : {
        "orbit_id" : "15",
        "orbit_determination_date" : "2017-04-06 08:27:08",
        "orbit_uncertainty" : "7",
        "minimum_orbit_intersection" : ".0253711",
        "jupiter_tisserand_invariant" : "3.419",
        "epoch_osculation" : "2458000.5",
        "eccentricity" : ".5761196194948477",
        "semi_major_axis" : "2.197373445340915",
        "inclination" : "8.446311852403278",
        "ascending_node_longitude" : "197.0656518404388",
        "orbital_period" : "1189.745948890063",
        "perihelion_distance" : ".9314234921230244",
        "perihelion_argument" : "47.71426013078412",
        "aphelion_distance" : "3.463323398558805",
        "perihelion_time" : "2457524.233466312740",
        "mean_anomaly" : "144.111398141232",
        "mean_motion" : ".3025856068985576",
        "equinox" : "J2000"
      }
    }, {
      "links" : {
        "self" : "https://api.nasa.gov/neo/rest/v1/neo/2326291?api_key=t0TVs3DtDT2H8Oy2Zy8m2eVrNsAVKAexjcZXUckd"
      },
      "neo_reference_id" : "2326291",
      "name" : "326291 (1998 HM3)",
      "nasa_jpl_url" : "http://ssd.jpl.nasa.gov/sbdb.cgi?sstr=2326291",
      "absolute_magnitude_h" : 19.0,
      "estimated_diameter" : {
        "kilometers" : {
          "estimated_diameter_min" : 0.4212646106,
          "estimated_diameter_max" : 0.9419763057
        },
        "meters" : {
          "estimated_diameter_min" : 421.2646105562,
          "estimated_diameter_max" : 941.9763057186
        },
        "miles" : {
          "estimated_diameter_min" : 0.2617616123,
          "estimated_diameter_max" : 0.5853167591
        },
        "feet" : {
          "estimated_diameter_min" : 1382.1017848971,
          "estimated_diameter_max" : 3090.4735428537
        }
      },
      "is_potentially_hazardous_asteroid" : false,
      "close_approach_data" : [ {
        "close_approach_date" : "2016-04-15",
        "epoch_date_close_approach" : 1460703600000,
        "relative_velocity" : {
          "kilometers_per_second" : "19.6527481065",
          "kilometers_per_hour" : "70749.8931835652",
          "miles_per_hour" : "43961.2322395325"
        },
        "miss_distance" : {
          "astronomical" : "0.4884174891",
          "lunar" : "189.9944000244",
          "kilometers" : "73066216",
          "miles" : "45401240"
        },
        "orbiting_body" : "Earth"
      } ],
      "orbital_data" : {
        "orbit_id" : "33",
        "orbit_determination_date" : "2017-04-06 09:23:41",
        "orbit_uncertainty" : "0",
        "minimum_orbit_intersection" : ".192763",
        "jupiter_tisserand_invariant" : "4.930",
        "epoch_osculation" : "2458000.5",
        "eccentricity" : ".06218985702373784",
        "semi_major_axis" : "1.246548213139202",
        "inclination" : "39.33254828538529",
        "ascending_node_longitude" : "210.8233768907851",
        "orbital_period" : "508.3490866929648",
        "perihelion_distance" : "1.169025557990879",
        "perihelion_argument" : "136.9913966524386",
        "aphelion_distance" : "1.324070868287525",
        "perihelion_time" : "2458223.637191145727",
        "mean_anomaly" : "201.9798699058557",
        "mean_motion" : ".7081747748224727",
        "equinox" : "J2000"
      }
    }, {
      "links" : {
        "self" : "https://api.nasa.gov/neo/rest/v1/neo/2463360?api_key=t0TVs3DtDT2H8Oy2Zy8m2eVrNsAVKAexjcZXUckd"
      },
      "neo_reference_id" : "2463360",
      "name" : "463360 (2012 TU)",
      "nasa_jpl_url" : "http://ssd.jpl.nasa.gov/sbdb.cgi?sstr=2463360",
      "absolute_magnitude_h" : 20.8,
      "estimated_diameter" : {
        "kilometers" : {
          "estimated_diameter_min" : 0.1838886721,
          "estimated_diameter_max" : 0.411187571
        },
        "meters" : {
          "estimated_diameter_min" : 183.8886720703,
          "estimated_diameter_max" : 411.1875710413
        },
        "miles" : {
          "estimated_diameter_min" : 0.1142630881,
          "estimated_diameter_max" : 0.2555000322
        },
        "feet" : {
          "estimated_diameter_min" : 603.309310875,
          "estimated_diameter_max" : 1349.040630575
        }
      },
      "is_potentially_hazardous_asteroid" : false,
      "close_approach_data" : [ {
        "close_approach_date" : "2016-04-15",
        "epoch_date_close_approach" : 1460703600000,
        "relative_velocity" : {
          "kilometers_per_second" : "6.0523113223",
          "kilometers_per_hour" : "21788.3207601616",
          "miles_per_hour" : "13538.4151967793"
        },
        "miss_distance" : {
          "astronomical" : "0.4163898759",
          "lunar" : "161.9756622314",
          "kilometers" : "62291040",
          "miles" : "38705856"
        },
        "orbiting_body" : "Earth"
      } ],
      "orbital_data" : {
        "orbit_id" : "38",
        "orbit_determination_date" : "2017-04-06 09:19:36",
        "orbit_uncertainty" : "0",
        "minimum_orbit_intersection" : ".206706",
        "jupiter_tisserand_invariant" : "4.243",
        "epoch_osculation" : "2458000.5",
        "eccentricity" : ".3340302736258638",
        "semi_major_axis" : "1.620497594726663",
        "inclination" : "11.21947302765015",
        "ascending_node_longitude" : ".8300652375825305",
        "orbital_period" : "753.4787575926583",
        "perihelion_distance" : "1.079202339750062",
        "perihelion_argument" : "268.9689034241176",
        "aphelion_distance" : "2.161792849703265",
        "perihelion_time" : "2458334.916188757693",
        "mean_anomaly" : "200.2213377090931",
        "mean_motion" : ".4777838742928719",
        "equinox" : "J2000"
      }
    } ]
  }
}